COMMENT,ORIGINATOR,NORAD_CAT_ID,OBJECT_NAME,OBJECT_TYPE,CLASSIFICATION_TYPE,INTLDES,EPOCH,EPOCH_MICROSECONDS,MEAN_MOTION,ECCENTRICITY,INCLINATION,RA_OF_ASC_NODE,ARG_OF_PERICENTER,MEAN_ANOMALY,EPHEMERIS_TYPE,ELEMENT_SET_NO,REV_AT_EPOCH,BSTAR,MEAN_MOTION_DOT,MEAN_MOTION_DDOT,FILE,TLE_LINE0,TLE_LINE1,TLE_LINE2,OBJECT_ID,OBJECT_NUMBER,SEMIMAJOR_AXIS,PERIOD,APOGEE,PERIGEE,DECAYED
"GENERATED VIA SPACETRACK.ORG API","18 SPCS","55099","SPACEBEE-156","PAYLOAD","U","23001CU","2023-01-29 21:39:14","196960","15.14443092","0.001784","97.4997","91.6283","120.6436","239.6558","0","999","413","0.00058358","0.0001071","0","3765015","0 SPACEBEE-156","1 55099U 23001CU  23029.90224765  .00010710  00000-0  58358-3 0  9996","2 55099  97.4997  91.6283 0017840 120.6436 239.6558 15.14443092  4135","2023-001CU","55099","6900.807","95.084","534.983","510.361","0"
"GENERATED VIA SPACETRACK.ORG API","18 SPCS","55099","SPACEBEE-156","PAYLOAD","U","23001CU","2023-01-30 13:30:40","867200","15.14456643","0.0017899","97.4996","92.2795","118.5007","241.803","0","999","423","0.00053195","0.00009759","0","3765576","0 SPACEBEE-156","1 55099U 23001CU  23030.56297300  .00009759  00000-0  53195-3 0  9990","2 55099  97.4996  92.2795 0017899 118.5007 241.8030 15.14456643  4230","2023-001CU","55099","6900.766","95.084","534.982","510.279","0"
"GENERATED VIA SPACETRACK.ORG API","18 SPCS","55099","SPACEBEE-156","PAYLOAD","U","23001CU","2023-01-30 15:05:49","506144","15.14458041","0.0017902","97.4996","92.3446","118.2746","242.0295","0","999","424","0.00052405","0.00009614","0","3765585","0 SPACEBEE-156","1 55099U 23001CU  23030.62904521  .00009614  00000-0  52405-3 0  9990","2 55099  97.4996  92.3446 0017902 118.2746 242.0295 15.14458041  4247","2023-001CU","55099","6900.761","95.084","534.980","510.273","0"
"GENERATED VIA SPACETRACK.ORG API","18 SPCS","55099","SPACEBEE-156","PAYLOAD","U","23001CU","2023-01-30 21:26:24","2304","15.1446364","0.0017931","97.4997","92.6051","117.3942","242.9117","0","999","428","0.00052698","0.00009669","0","3765849","0 SPACEBEE-156","1 55099U 23001CU  23030.89333336  .00009669  00000-0  52698-3 0  9993","2 55099  97.4997  92.6051 0017931 117.3942 242.9117 15.14463640  4280","2023-001CU","55099","6900.744","95.083","534.983","510.236","0"
"GENERATED VIA SPACETRACK.ORG API","18 SPCS","55099","SPACEBEE-156","PAYLOAD","U","23001CU","2023-01-31 13:17:49","868160","15.14479671","0.0017974","97.4995","93.2563","115.3002","245.0094","0","999","438","0.00062524","0.00011493","0","3766475","0 SPACEBEE-156","1 55099U 23001CU  23031.55404940  .00011493  00000-0  62524-3 0  9994","2 55099  97.4995  93.2563 0017974 115.3002 245.0094 15.14479671  4385","2023-001CU","55099","6900.696","95.082","534.964","510.157","0"
"GENERATED VIA SPACETRACK.ORG API","18 SPCS","55099","SPACEBEE-156","PAYLOAD","U","23001CU","2023-01-31 18:03:15","520608","15.14483731","0.0017943","97.4996","93.4517","114.6317","245.6786","0","999","441","0.00060554","0.00011129","0","3766733","0 SPACEBEE-156","1 55099U 23001CU  23031.75226297  .00011129  00000-0  60554-3 0  9990","2 55099  97.4996  93.4517 0017943 114.6317 245.6786 15.14483731  4414","2023-001CU","55099","6900.683","95.082","534.930","510.166","0"
"GENERATED VIA SPACETRACK.ORG API","18 SPCS","55099","SPACEBEE-156","PAYLOAD","U","23001CU","2023-01-31 21:13:32","592000","15.14486794","0.0017965","97.4995","93.5819","114.1786","246.1326","0","999","443","0.00061572","0.00011319","0","3766747","0 SPACEBEE-156","1 55099U 23001CU  23031.88440500  .00011319  00000-0  61572-3 0  9991","2 55099  97.4995  93.5819 0017965 114.1786 246.1326 15.14486794  4438","2023-001CU","55099","6900.674","95.082","534.936","510.142","0"
"GENERATED VIA SPACETRACK.ORG API","18 SPCS","55099","SPACEBEE-156","PAYLOAD","U","23001CU","2023-02-01 11:29:49","84512","15.14499953","0.001796","97.4996","94.1675","112.3524","247.9613","0","999","452","0.00057507","0.0001057","0","3767525","0 SPACEBEE-156","1 55099U 23001CU  23032.47904033  .00010570  00000-0  57507-3 0  9994","2 55099  97.4996  94.1675 0017960 112.3524 247.9613 15.14499953  4520","2023-001CU","55099","6900.634","95.081","534.893","510.106","0"
"GENERATED VIA SPACETRACK.ORG API","18 SPCS","55099","SPACEBEE-156","PAYLOAD","U","23001CU","2023-02-02 03:21:13","517856","15.14516076","0.0017871","97.4996","94.8185","110.1733","250.1423","0","999","462","0.00057622","0.00010596","0","3768191","0 SPACEBEE-156","1 55099U 23001CU  23033.13973979  .00010596  00000-0  57622-3 0  9999","2 55099  97.4996  94.8185 0017871 110.1733 250.1423 15.14516076  4624","2023-001CU","55099","6900.585","95.080","534.782","510.118","0"
"GENERATED VIA SPACETRACK.ORG API","18 SPCS","55099","SPACEBEE-156","PAYLOAD","U","23001CU","2023-02-02 12:52:03","843840","15.14526966","0.001787","97.4993","95.209","108.9827","251.3343","0","999","468","0.00063535","0.00011695","0","3768366","0 SPACEBEE-156","1 55099U 23001CU  23033.53615560  .00011695  00000-0  63535-3 0  9993","2 55099  97.4993  95.2090 0017870 108.9827 251.3343 15.14526966  4688","2023-001CU","55099","6900.552","95.079","534.748","510.086","0"
"GENERATED VIA SPACETRACK.ORG API","18 SPCS","55099","SPACEBEE-156","PAYLOAD","U","23001CU","2023-02-03 03:08:18","964320","15.1454059","0.0017802","97.4991","95.7951","107.185","253.1332","0","999","477","0.00058763","0.00010814","0","3770323","0 SPACEBEE-156","1 55099U 23001CU  23034.13077505  .00010814  00000-0  58763-3 0  9990","2 55099  97.4991  95.7951 0017802 107.1850 253.1332 15.14540590  4776","2023-001CU","55099","6900.511","95.078","534.660","510.091","0"
"GENERATED VIA SPACETRACK.ORG API","18 SPCS","55099","SPACEBEE-156","PAYLOAD","U","23001CU","2023-02-04 02:55:23","19744","15.14568577","0.0017735","97.4985","96.7722","104.2343","256.086","0","999","492","0.00074782","0.00013797","0","3772472","0 SPACEBEE-156","1 55099U 23001CU  23035.12179421  .00013797  00000-0  74782-3 0  9992","2 55099  97.4985  96.7722 0017735 104.2343 256.0860 15.14568577  4926","2023-001CU","55099","6900.426","95.077","534.529","510.053","0"
"GENERATED VIA SPACETRACK.ORG API","18 SPCS","55099","SPACEBEE-156","PAYLOAD","U","23001CU","2023-02-04 02:55:23","19744","15.14568577","0.0017735","97.4985","96.7722","104.2343","256.086","0","999","492","0.00074782","0.00013797","0","3772514","0 SPACEBEE-156","1 55099U 23001CU  23035.12179421  .00013797  00000-0  74782-3 0  9992","2 55099  97.4985  96.7722 0017735 104.2343 256.0860 15.14568577  4926","2023-001CU","55099","6900.426","95.077","534.529","510.053","0"
"GENERATED VIA SPACETRACK.ORG API","18 SPCS","55099","SPACEBEE-156","PAYLOAD","U","23001CU","2023-02-05 16:58:38","284320","15.14611935","0.0018103","97.4991","98.3353","94.031","266.2959","0","999","516","0.00071114","0.00013134","0","3773716","0 SPACEBEE-156","1 55099U 23001CU  23036.70738755  .00013134  00000-0  71114-3 0  9999","2 55099  97.4991  98.3353 0018103  94.0310 266.2959 15.14611935  5167","2023-001CU","55099","6900.294","95.074","534.651","509.667","0"
"GENERATED VIA SPACETRACK.ORG API","18 SPCS","55099","SPACEBEE-156","PAYLOAD","U","23001CU","2023-02-06 04:04:34","328928","15.14629672","0.0017984","97.4969","98.792","97.4066","262.921","0","999","523","0.00077683","0.00014362","0","3775254","0 SPACEBEE-156","1 55099U 23001CU  23037.16984177  .00014362  00000-0  77683-3 0  9992","2 55099  97.4969  98.7920 0017984  97.4066 262.9210 15.14629672  5235","2023-001CU","55099","6900.240","95.073","534.514","509.696","0"
"GENERATED VIA SPACETRACK.ORG API","18 SPCS","55099","SPACEBEE-156","PAYLOAD","U","23001CU","2023-02-06 04:04:34","328928","15.14629672","0.0017984","97.4969","98.792","97.4066","262.921","0","999","523","0.00077683","0.00014362","0","3776603","0 SPACEBEE-156","1 55099U 23001CU  23037.16984177  .00014362  00000-0  77683-3 0  9992","2 55099  97.4969  98.7920 0017984  97.4066 262.9210 15.14629672  5235","2023-001CU","55099","6900.240","95.073","534.514","509.696","0"
"GENERATED VIA SPACETRACK.ORG API","18 SPCS","55099","SPACEBEE-156","PAYLOAD","U","23001CU","2023-02-07 03:51:33","273792","15.1466503","0.0018","97.4984","99.7658","94.5962","265.7327","0","999","538","0.0010306","0.00019106","0","3777208","0 SPACEBEE-156","1 55099U 23001CU  23038.16080178  .00019106  00000-0  10306-2 0  9990","2 55099  97.4984  99.7658 0018000  94.5962 265.7327 15.14665030  5388","2023-001CU","55099","6900.133","95.071","534.418","509.577","0"
"GENERATED VIA SPACETRACK.ORG API","18 SPCS","55099","SPACEBEE-156","PAYLOAD","U","23001CU","2023-02-07 03:51:33","273792","15.1466503","0.0018","97.4984","99.7658","94.5962","265.7327","0","999","538","0.0010306","0.00019106","0","3777942","0 SPACEBEE-156","1 55099U 23001CU  23038.16080178  .00019106  00000-0  10306-2 0  9990","2 55099  97.4984  99.7658 0018000  94.5962 265.7327 15.14665030  5388","2023-001CU","55099","6900.133","95.071","534.418","509.577","0"
"GENERATED VIA SPACETRACK.ORG API","18 SPCS","55099","SPACEBEE-156","PAYLOAD","U","23001CU","2023-02-09 16:06:23","478912","15.14782249","0.0017844","97.4968","102.2411","85.6841","274.643","0","999","576","0.0013062","0.00024329","0","3783601","0 SPACEBEE-156","1 55099U 23001CU  23040.67110508  .00024329  00000-0  13062-2 0  9995","2 55099  97.4968 102.2411 0017844  85.6841 274.6430 15.14782249  5767","2023-001CU","55099","6899.777","95.063","533.954","509.330","0"
"GENERATED VIA SPACETRACK.ORG API","18 SPCS","55099","SPACEBEE-156","PAYLOAD","U","23001CU","2023-02-10 03:12:15","71328","15.14805357","0.0017768","97.4962","102.6967","84.3141","276.0116","0","999","583","0.0014344","0.00026749","0","3784184","0 SPACEBEE-156","1 55099U 23001CU  23041.13350777  .00026749  00000-0  14344-2 0  9993","2 55099  97.4962 102.6967 0017768  84.3141 276.0116 15.14805357  5836","2023-001CU","55099","6899.707","95.062","533.831","509.312","0"
